GLOBALSTAR M001 [-]     
1 25162U 98008A   24006.16615775 -.00000139  00000+0 -32619-3 0  9999
2 25162  52.0045  70.0217 0001820 201.7136 175.9021 12.38174502178411
GLOBALSTAR M004 [-]     
1 25163U 98008B   24006.08605992 -.00000044  00000+0  32897-3 0  9993
2 25163  51.9969 225.2051 0002631 176.2471 350.6495 12.63347560195032
GLOBALSTAR M002 [-]     
1 25164U 98008C   24005.59834441 -.00000091  00000+0 -28524-3 0  9997
2 25164  52.0007 125.5371 0000954 203.2023 156.8754 11.61497511122645
GLOBALSTAR M003 [-]     
1 25165U 98008D   24005.75309567  .00000052  00000+0  15093-2 0  9993
2 25165  51.9762 192.1407 0007147 314.7403 130.5549 12.11966007169147
GLOBALSTAR M014 [-]     
1 25306U 98023A   24005.67133837 -.00000086  00000+0 -16620-3 0  9990
2 25306  51.9854  59.6891 0001261 123.1927  58.9444 11.65463161129542
GLOBALSTAR M006 [-]     
1 25307U 98023B   24005.70431628 -.00000092  00000+0 -33245-3 0  9993
2 25307  51.9945  92.3272 0003584 226.5979 304.3925 11.58157344155597
GLOBALSTAR M015 [-]     
1 25308U 98023C   24005.66832928 -.00000047  00000+0  59325-3 0  9993
2 25308  51.9791 166.6686 0011900 207.9876 234.0884 11.48857518133331
GLOBALSTAR M008 [-]     
1 25309U 98023D   24006.20801083 -.00000074  00000+0  17778-3 0  9999
2 25309  51.9978 288.7548 0002706 126.6268  20.6207 12.36034471172860
